[{"OBJECT_NAME":"TRANSPORTER-11 OBJECT A","OBJECT_ID":"2024-149A","EPOCH":"2026-03-09T17:54:54.302112","MEAN_MOTION":15.31141332,"ECCENTRICITY":0.00031096,"INCLINATION":97.378,"RA_OF_ASC_NODE":149.0949,"ARG_OF_PERICENTER":191.001,"MEAN_ANOMALY":169.1164,"EPHEMERIS_TYPE":0,"CLASSIFICATION_TYPE":"U","NORAD_CAT_ID":60468,"ELEMENT_SET_NO":999,"REV_AT_EPOCH":8683,"BSTAR":0.00036053677,"MEAN_MOTION_DOT":0.00010774,"MEAN_MOTION_DDOT":0},{"OBJECT_NAME":"STARLINK-35683","OBJECT_ID":"2025-257AB","EPOCH":"2026-03-09T16:26:51.457056","MEAN_MOTION":15.3017288,"ECCENTRICITY":0.00014136,"INCLINATION":53.159,"RA_OF_ASC_NODE":216.9781,"ARG_OF_PERICENTER":51.3731,"MEAN_ANOMALY":308.7396,"EPHEMERIS_TYPE":0,"CLASSIFICATION_TYPE":"U","NORAD_CAT_ID":66405,"ELEMENT_SET_NO":999,"REV_AT_EPOCH":1966,"BSTAR":0.00066600395,"MEAN_MOTION_DOT":0.00019401,"MEAN_MOTION_DDOT":0}]
