TRANSPORTER-11 OBJECT A 
1 60468U 24149A   26068.74646182  .00010774  00000+0  36054-3 0  9993
2 60468  97.3780 149.0949 0003110 191.0010 169.1164 15.31141332 86830
STARLINK-35683          
1 66405U 25257AB  26068.68531779  .00019401  00000+0  66600-3 0  9995
2 66405  53.1590 216.9781 0001414  51.3731 308.7396 15.30172880 19663
